[
    {
        "Altitude(m)": 559346.4941034118,
        "Argument of Periapsis(deg)": 0.033114955553567506,
        "Eccentricity": 0.0,
        "Inclination(deg)": 53.0,
        "Latitude(deg)": -21.331160621265067,
        "Longitude(deg)": 43.02966800742822,
        "Mean Anomaly(deg)": -153.17833566211206,
        "RAAN(deg)": 309.9507168426401,
        "Satellite Name": "Starlink Shell 1 1373",
        "Satellite Number": 1373,
        "Semi-Major Axis(m)": 6931778.249405717,
        "Time(s)": 950
    },
    {
        "Altitude(m)": 559508.3591703655,
        "Argument of Periapsis(deg)": 0.03346353403307874,
        "Eccentricity": 0.0,
        "Inclination(deg)": 53.0,
        "Latitude(deg)": -21.81125921593801,
        "Longitude(deg)": 43.42297440017325,
        "Mean Anomaly(deg)": -152.5515044585553,
        "RAAN(deg)": 309.9501980725626,
        "Satellite Name": "Starlink Shell 1 1373",
        "Satellite Number": 1373,
        "Semi-Major Axis(m)": 6931778.249405717,
        "Time(s)": 960
    },
    {
        "Altitude(m)": 559671.4774584227,
        "Argument of Periapsis(deg)": 0.03381211251258998,
        "Eccentricity": 0.0,
        "Inclination(deg)": 53.0,
        "Latitude(deg)": -22.290164414091176,
        "Longitude(deg)": 43.81916893895744,
        "Mean Anomaly(deg)": -151.92467325499862,
        "RAAN(deg)": 309.94967930248515,
        "Satellite Name": "Starlink Shell 1 1373",
        "Satellite Number": 1373,
        "Semi-Major Axis(m)": 6931778.249405717,
        "Time(s)": 970
    },
    {
        "Altitude(m)": 559835.7912624816,
        "Argument of Periapsis(deg)": 0.034160690992101214,
        "Eccentricity": 0.0,
        "Inclination(deg)": 53.0,
        "Latitude(deg)": -22.767840101575725,
        "Longitude(deg)": 44.218334403917154,
        "Mean Anomaly(deg)": -151.29784205144196,
        "RAAN(deg)": 309.94916053240763,
        "Satellite Name": "Starlink Shell 1 1373",
        "Satellite Number": 1373,
        "Semi-Major Axis(m)": 6931778.249405717,
        "Time(s)": 980
    },
    {
        "Altitude(m)": 560001.2421951478,
        "Argument of Periapsis(deg)": 0.034509269471612446,
        "Eccentricity": 0.0,
        "Inclination(deg)": 53.0,
        "Latitude(deg)": -23.244249469493667,
        "Longitude(deg)": 44.62055522540143,
        "Mean Anomaly(deg)": -150.67101084788524,
        "RAAN(deg)": 309.94864176233017,
        "Satellite Name": "Starlink Shell 1 1373",
        "Satellite Number": 1373,
        "Semi-Major Axis(m)": 6931778.249405717,
        "Time(s)": 990
    }
]